{
  "type": "FeatureCollection",
  "licence": "Data © OpenStreetMap contributors, ODbL 1.0. http://osm.org/copyright",
  "features": [
    {
      "type": "Feature",
      "properties": {
        "place_id": 237660976,
        "osm_type": "relation",
        "osm_id": 92063,
        "place_rank": 12,
        "category": "boundary",
        "type": "administrative",
        "importance": 0.42119130781949454,
        "addresstype": "suburb",
        "name": "เขตปทุมวัน",
        "display_name": "เขตปทุมวัน, กรุงเทพมหานคร, 10330, ประเทศไทย"
      },
      "bbox": [
        100.5155314,
        13.7225037,
        100.5529529,
        13.7532379
      ],
      "geometry": {
        "type": "Polygon",
        "coordinates": [
          [
            [
              100.5155314,
              13.7380772
            ],
            [
              100.5157915,
              13.737972
            ],
            [
              100.515788,
              13.7378098
            ],
            [
              100.5159225,
              13.7377485
            ],
            [
              100.5164668,
              13.7375704
            ],
            [
              100.5216049,
              13.7355016
            ],
            [
              100.5288511,
              13.732584
            ],
            [
              100.5336611,
              13.7305724
            ],
            [
              100.5363459,
              13.7294495
            ],
            [
              100.5366511,
              13.7293219
            ],
            [
              100.5367013,
              13.7293009
            ],
            [
              100.5397139,
              13.7280439
            ],
            [
              100.5444745,
              13.7260498
            ],
            [
              100.5529529,
              13.7225037
            ],
            [
              100.5507256,
              13.7428412
            ],
            [
              100.5506414,
              13.7436101
            ],
            [
              100.5501098,
              13.7484147
            ],
            [
              100.5480412,
              13.748373
            ],
            [
              100.5461094,
              13.7485885
            ],
            [
              100.5445742,
              13.7487051
            ],
            [
              100.5440844,
              13.7487482
            ],
            [
              100.5428828,
              13.74899
            ],
            [
              100.5418958,
              13.7493151
            ],
            [
              100.5414931,
              13.7493577
            ],
            [
              100.541208,
              13.7493879
            ],
            [
              100.5410969,
              13.7493997
            ],
            [
              100.5408616,
              13.7494218
            ],
            [
              100.5395086,
              13.7495477
            ],
            [
              100.5393891,
              13.7495807
            ],
            [
              100.5393514,
              13.7496258
            ],
            [
              100.5391516,
              13.7496579
            ],
            [
              100.5388722,
              13.7496672
            ],
            [
              100.5386841,
              13.749626
            ],
            [
              100.5385452,
              13.7496274
            ],
            [
              100.5383509,
              13.7496572
            ],
            [
              100.5380565,
              13.7496746
            ],
            [
              100.5375121,
              13.749717
            ],
            [
              100.536611,
              13.7497174
            ],
            [
              100.5365708,
              13.7497237
            ],
            [
              100.5364069,
              13.7497088
            ],
            [
              100.5361753,
              13.7496877
            ],
            [
              100.5360468,
              13.7496558
            ],
            [
              100.5356375,
              13.7494934
            ],
            [
              100.5355697,
              13.7494765
            ],
            [
              100.5350894,
              13.7493568
            ],
            [
              100.5345044,
              13.7492925
            ],
            [
              100.5341796,
              13.7492568
            ],
            [
              100.533083,
              13.7491702
            ],
            [
              100.5329295,
              13.7491581
            ],
            [
              100.5328063,
              13.7491484
            ],
            [
              100.5313071,
              13.7492816
            ],
            [
              100.5310855,
              13.7493013
            ],
            [
              100.5298883,
              13.7493106
            ],
            [
              100.5296258,
              13.74934
            ],
            [
              100.5295066,
              13.7493558
            ],
            [
              100.5292355,
              13.7494019
            ],
            [
              100.5276393,
              13.7496736
            ],
            [
              100.5266363,
              13.7495663
            ],
            [
              100.5262778,
              13.7494865
            ],
            [
              100.5254844,
              13.7493003
            ],
            [
              100.5253725,
              13.7492833
            ],
            [
              100.5253171,
              13.7493041
            ],
            [
              100.525212,
              13.7493557
            ],
            [
              100.525157,
              13.7493901
            ],
            [
              100.5249526,
              13.7494899
            ],
            [
              100.52455,
              13.7497678
            ],
            [
              100.524427,
              13.7498659
            ],
            [
              100.5244076,
              13.7498771
            ],
            [
              100.5226078,
              13.7509169
            ],
            [
              100.522427,
              13.7510213
            ],
            [
              100.5204147,
              13.7522136
            ],
            [
              100.5202095,
              13.7523348
            ],
            [
              100.5190372,
              13.7527031
            ],
            [
              100.5190133,
              13.7527106
            ],
            [
              100.5189489,
              13.7527308
            ],
            [
              100.5175182,
              13.7532041
            ],
            [
              100.5174297,
              13.7532301
            ],
            [
              100.5172607,
              13.7532379
            ],
            [
              100.5172634,
              13.7530243
            ],
            [
              100.5172909,
              13.7524824
            ],
            [
              100.5170105,
              13.7501347
            ],
            [
              100.5168467,
              13.7491679
            ],
            [
              100.5168155,
              13.7490722
            ],
            [
              100.5167959,
              13.7489398
            ],
            [
              100.5166755,
              13.7480966
            ],
            [
              100.5163613,
              13.7462311
            ],
            [
              100.5162442,
              13.7456019
            ],
            [
              100.5162212,
              13.7454635
            ],
            [
              100.5160028,
              13.7441521
            ],
            [
              100.5158839,
              13.7433378
            ],
            [
              100.5157631,
              13.7423686
            ],
            [
              100.5156685,
              13.7416921
            ],
            [
              100.5156409,
              13.7412589
            ],
            [
              100.5156353,
              13.7411491
            ],
            [
              100.5156309,
              13.7410774
            ],
            [
              100.5155896,
              13.7404059
            ],
            [
              100.5155682,
              13.7398229
            ],
            [
              100.5155325,
              13.7381644
            ],
            [
              100.5155314,
              13.7380772
            ]
          ]
        ]
      }
    }
  ]
}